[{"OBJECT_NAME":"SITRO-AIS 8 (ANOKHIN)","OBJECT_ID":"2023-091AD","EPOCH":"2026-03-09T23:44:40.058592","MEAN_MOTION":15.29359179,"ECCENTRICITY":0.0012509,"INCLINATION":97.5169,"RA_OF_ASC_NODE":133.2823,"ARG_OF_PERICENTER":92.0171,"MEAN_ANOMALY":268.2501,"EPHEMERIS_TYPE":0,"CLASSIFICATION_TYPE":"U","NORAD_CAT_ID":57193,"ELEMENT_SET_NO":999,"REV_AT_EPOCH":14927,"BSTAR":0.00064982524,"MEAN_MOTION_DOT":0.00018494,"MEAN_MOTION_DDOT":0},{"OBJECT_NAME":"STARLINK-34721","OBJECT_ID":"2025-161AA","EPOCH":"2026-03-09T21:07:46.343136","MEAN_MOTION":15.30208248,"ECCENTRICITY":0.00011796,"INCLINATION":53.16,"RA_OF_ASC_NODE":292.9834,"ARG_OF_PERICENTER":167.4427,"MEAN_ANOMALY":192.6603,"EPHEMERIS_TYPE":0,"CLASSIFICATION_TYPE":"U","NORAD_CAT_ID":65039,"ELEMENT_SET_NO":999,"REV_AT_EPOCH":3426,"BSTAR":0.00085484728,"MEAN_MOTION_DOT":0.00025051,"MEAN_MOTION_DDOT":0}]
